{
  "type": "FeatureCollection",
  "features": [
    {
      "type": "Feature",
      "properties": {
        "title": "San Francisco",
        "description": "Sample feature representing San Francisco, California, USA."
      },
      "geometry": {
        "type": "Point",
        "coordinates": [-122.4194, 37.7749]
      }
    },
    {
      "type": "Feature",
      "properties": {
        "title": "Los Angeles",
        "description": "Sample feature representing Los Angeles, California, USA."
      },
      "geometry": {
        "type": "Point",
        "coordinates": [-118.2437, 34.0522]
      }
    }
  ]
}
